SL-8 R/B                
1 21088U 91006B   26105.16012141  .00000119  00000+0  10474-3 0  9994
2 21088  82.9414 142.9267 0021032 294.4855 124.8896 13.77501069769093
OKEAN-3                 
1 21397U 91039A   26105.24887209  .00000980  00000+0  66913-4 0  9993
2 21397  82.5139 301.4115 0013785 200.4673 159.6003 15.05012861870539
COSMOS 2151             
1 21422U 91042A   26105.23498103  .00001032  00000+0  80247-4 0  9991
2 21422  82.4977  48.4162 0010849 300.8258  59.1897 15.00265175868679
SL-14 R/B               
1 21423U 91042B   26105.28876384  .00000201  00000+0  22301-4 0  9992
2 21423  82.4957 185.8736 0018422 118.7636 241.5432 14.81864965858493
ERS-1                   
1 21574U 91050A   26105.05121766  .00000182  00000+0  72656-4 0  9996
2 21574  98.7847 124.1957 0033159  94.4492 266.0484 14.39477332820964
ARIANE 40 R/B           
1 21610U 91050F   26105.15439109  .00000138  00000+0  53872-4 0  9991
2 21610  98.1940 156.0087 0002404 347.7291  12.3841 14.42919976824255
INTERCOSMOS 25          
1 21819U 91086A   26105.22363891  .00000713  00000+0  13457-3 0  9996
2 21819  82.5992 287.9142 1485932  38.2048 331.5451 12.12114434501111
SL-8 R/B                
1 21876U 92008B   26105.28960286  .00000012  00000+0 -30931-5 0  9992
2 21876  82.9261 240.5482 0035279  34.4581 342.7813 13.75970192714453
SL-8 R/B                
1 21938U 92020B   26105.05310687 -.00000028  00000+0 -45059-4 0  9998
2 21938  82.9276 126.7565 0028694 193.5223 184.4962 13.75549859706132
USA 81                  
1 21949U 92023A   26105.26409493  .00000121  00000+0  37399-4 0  9990
2 21949  85.0034 110.3287 0001238  84.4679 275.6655 14.32379841100022
COSMOS 2219             
1 22219U 92076A   26105.23408467  .00000134  00000+0  94865-4 0  9991
2 22219  71.0586 301.6758 0017333 149.9362 210.2760 14.14088999723548
SL-16 R/B               
1 22220U 92076B   26105.25738863  .00000178  00000+0  11233-3 0  9996
2 22220  70.9978 111.3457 0011497  30.2628 341.0400 14.16866233727014
COSMOS 2221             
1 22236U 92080A   26104.88319794  .00001190  00000+0  10262-3 0  9990
2 22236  82.5028 244.4012 0015580  73.2744 287.0186 14.96358646786202
SL-16 R/B               
1 22285U 92093B   26105.20519155 -.00000119  00000+0 -36598-4 0  9991
2 22285  71.0199 287.6099 0006432 257.0102 103.0303 14.15453527718329
COSMOS 2228             
1 22286U 92094A   26105.27618163  .00001172  00000+0  98304-4 0  9990
2 22286  82.5205 202.2836 0018196 174.4119 185.7311 14.97379446781533
SL-16 R/B               
1 22566U 93016B   26105.17861388 -.00000003  00000+0  23151-4 0  9995
2 22566  71.0063 138.5474 0012691 268.3592  91.6077 14.15314009707334
COSMOS 2242             
1 22626U 93024A   26105.27438877  .00001117  00000+0  95253-4 0  9993
2 22626  82.5190 231.7155 0016400 177.5292 182.6015 14.96712970785866
