[{"OBJECT_NAME":"SL-8 R/B","OBJECT_ID":"1991-006B","EPOCH":"2026-04-15T03:50:34.489824","MEAN_MOTION":13.77501069,"ECCENTRICITY":0.00210323,"INCLINATION":82.9414,"RA_OF_ASC_NODE":142.9267,"ARG_OF_PERICENTER":294.4855,"MEAN_ANOMALY":124.8896,"EPHEMERIS_TYPE":0,"CLASSIFICATION_TYPE":"U","NORAD_CAT_ID":21088,"ELEMENT_SET_NO":999,"REV_AT_EPOCH":76909,"BSTAR":0.00010473507,"MEAN_MOTION_DOT":1.19e-6,"MEAN_MOTION_DDOT":0},{"OBJECT_NAME":"OKEAN-3","OBJECT_ID":"1991-039A","EPOCH":"2026-04-15T05:58:22.548576","MEAN_MOTION":15.05012861,"ECCENTRICITY":0.00137852,"INCLINATION":82.5139,"RA_OF_ASC_NODE":301.4115,"ARG_OF_PERICENTER":200.4673,"MEAN_ANOMALY":159.6003,"EPHEMERIS_TYPE":0,"CLASSIFICATION_TYPE":"U","NORAD_CAT_ID":21397,"ELEMENT_SET_NO":999,"REV_AT_EPOCH":87053,"BSTAR":6.6912515e-5,"MEAN_MOTION_DOT":9.8e-6,"MEAN_MOTION_DDOT":0},{"OBJECT_NAME":"COSMOS 2151","OBJECT_ID":"1991-042A","EPOCH":"2026-04-15T05:38:22.360992","MEAN_MOTION":15.00265175,"ECCENTRICITY":0.00108498,"INCLINATION":82.4977,"RA_OF_ASC_NODE":48.4162,"ARG_OF_PERICENTER":300.8258,"MEAN_ANOMALY":59.1897,"EPHEMERIS_TYPE":0,"CLASSIFICATION_TYPE":"U","NORAD_CAT_ID":21422,"ELEMENT_SET_NO":999,"REV_AT_EPOCH":86867,"BSTAR":8.0247134e-5,"MEAN_MOTION_DOT":1.032e-5,"MEAN_MOTION_DDOT":0},{"OBJECT_NAME":"SL-14 R/B","OBJECT_ID":"1991-042B","EPOCH":"2026-04-15T06:55:49.195776","MEAN_MOTION":14.81864965,"ECCENTRICITY":0.00184225,"INCLINATION":82.4957,"RA_OF_ASC_NODE":185.8736,"ARG_OF_PERICENTER":118.7636,"MEAN_ANOMALY":241.5432,"EPHEMERIS_TYPE":0,"CLASSIFICATION_TYPE":"U","NORAD_CAT_ID":21423,"ELEMENT_SET_NO":999,"REV_AT_EPOCH":85849,"BSTAR":2.2300869e-5,"MEAN_MOTION_DOT":2.01e-6,"MEAN_MOTION_DDOT":0},{"OBJECT_NAME":"ERS-1","OBJECT_ID":"1991-050A","EPOCH":"2026-04-15T01:13:45.205824","MEAN_MOTION":14.39477332,"ECCENTRICITY":0.00331595,"INCLINATION":98.7847,"RA_OF_ASC_NODE":124.1957,"ARG_OF_PERICENTER":94.4492,"MEAN_ANOMALY":266.0484,"EPHEMERIS_TYPE":0,"CLASSIFICATION_TYPE":"U","NORAD_CAT_ID":21574,"ELEMENT_SET_NO":999,"REV_AT_EPOCH":82096,"BSTAR":7.2655727e-5,"MEAN_MOTION_DOT":1.82e-6,"MEAN_MOTION_DDOT":0},{"OBJECT_NAME":"ARIANE 40 R/B","OBJECT_ID":"1991-050F","EPOCH":"2026-04-15T03:42:19.390176","MEAN_MOTION":14.42919976,"ECCENTRICITY":0.00024048,"INCLINATION":98.194,"RA_OF_ASC_NODE":156.0087,"ARG_OF_PERICENTER":347.7291,"MEAN_ANOMALY":12.3841,"EPHEMERIS_TYPE":0,"CLASSIFICATION_TYPE":"U","NORAD_CAT_ID":21610,"ELEMENT_SET_NO":999,"REV_AT_EPOCH":82425,"BSTAR":5.3872001e-5,"MEAN_MOTION_DOT":1.38e-6,"MEAN_MOTION_DDOT":0},{"OBJECT_NAME":"INTERCOSMOS 25","OBJECT_ID":"1991-086A","EPOCH":"2026-04-15T05:22:02.401824","MEAN_MOTION":12.12114434,"ECCENTRICITY":0.14859325,"INCLINATION":82.5992,"RA_OF_ASC_NODE":287.9142,"ARG_OF_PERICENTER":38.2048,"MEAN_ANOMALY":331.5451,"EPHEMERIS_TYPE":0,"CLASSIFICATION_TYPE":"U","NORAD_CAT_ID":21819,"ELEMENT_SET_NO":999,"REV_AT_EPOCH":50111,"BSTAR":0.00013456953,"MEAN_MOTION_DOT":7.13e-6,"MEAN_MOTION_DDOT":0},{"OBJECT_NAME":"SL-8 R/B","OBJECT_ID":"1992-008B","EPOCH":"2026-04-15T06:57:01.687104","MEAN_MOTION":13.75970192,"ECCENTRICITY":0.00352796,"INCLINATION":82.9261,"RA_OF_ASC_NODE":240.5482,"ARG_OF_PERICENTER":34.4581,"MEAN_ANOMALY":342.7813,"EPHEMERIS_TYPE":0,"CLASSIFICATION_TYPE":"U","NORAD_CAT_ID":21876,"ELEMENT_SET_NO":999,"REV_AT_EPOCH":71445,"BSTAR":-3.09313e-6,"MEAN_MOTION_DOT":1.2e-7,"MEAN_MOTION_DDOT":0},{"OBJECT_NAME":"SL-8 R/B","OBJECT_ID":"1992-020B","EPOCH":"2026-04-15T01:16:28.433568","MEAN_MOTION":13.75549859,"ECCENTRICITY":0.00286941,"INCLINATION":82.9276,"RA_OF_ASC_NODE":126.7565,"ARG_OF_PERICENTER":193.5223,"MEAN_ANOMALY":184.4962,"EPHEMERIS_TYPE":0,"CLASSIFICATION_TYPE":"U","NORAD_CAT_ID":21938,"ELEMENT_SET_NO":999,"REV_AT_EPOCH":70613,"BSTAR":-4.505859e-5,"MEAN_MOTION_DOT":-2.8e-7,"MEAN_MOTION_DDOT":0},{"OBJECT_NAME":"USA 81","OBJECT_ID":"1992-023A","EPOCH":"2026-04-15T06:20:17.801952","MEAN_MOTION":14.32379841,"ECCENTRICITY":0.00012387,"INCLINATION":85.0034,"RA_OF_ASC_NODE":110.3287,"ARG_OF_PERICENTER":84.4679,"MEAN_ANOMALY":275.6655,"EPHEMERIS_TYPE":0,"CLASSIFICATION_TYPE":"U","NORAD_CAT_ID":21949,"ELEMENT_SET_NO":999,"REV_AT_EPOCH":10002,"BSTAR":3.7399108e-5,"MEAN_MOTION_DOT":1.21e-6,"MEAN_MOTION_DDOT":0},{"OBJECT_NAME":"COSMOS 2219","OBJECT_ID":"1992-076A","EPOCH":"2026-04-15T05:37:04.915488","MEAN_MOTION":14.14088999,"ECCENTRICITY":0.0017333,"INCLINATION":71.0586,"RA_OF_ASC_NODE":301.6758,"ARG_OF_PERICENTER":149.9362,"MEAN_ANOMALY":210.276,"EPHEMERIS_TYPE":0,"CLASSIFICATION_TYPE":"U","NORAD_CAT_ID":22219,"ELEMENT_SET_NO":999,"REV_AT_EPOCH":72354,"BSTAR":9.4865421e-5,"MEAN_MOTION_DOT":1.34e-6,"MEAN_MOTION_DDOT":0},{"OBJECT_NAME":"SL-16 R/B","OBJECT_ID":"1992-076B","EPOCH":"2026-04-15T06:10:38.377632","MEAN_MOTION":14.16866233,"ECCENTRICITY":0.0011497,"INCLINATION":70.9978,"RA_OF_ASC_NODE":111.3457,"ARG_OF_PERICENTER":30.2628,"MEAN_ANOMALY":341.04,"EPHEMERIS_TYPE":0,"CLASSIFICATION_TYPE":"U","NORAD_CAT_ID":22220,"ELEMENT_SET_NO":999,"REV_AT_EPOCH":72701,"BSTAR":0.0001123332,"MEAN_MOTION_DOT":1.78e-6,"MEAN_MOTION_DDOT":0},{"OBJECT_NAME":"COSMOS 2221","OBJECT_ID":"1992-080A","EPOCH":"2026-04-14T21:11:48.302016","MEAN_MOTION":14.96358646,"ECCENTRICITY":0.001558,"INCLINATION":82.5028,"RA_OF_ASC_NODE":244.4012,"ARG_OF_PERICENTER":73.2744,"MEAN_ANOMALY":287.0186,"EPHEMERIS_TYPE":0,"CLASSIFICATION_TYPE":"U","NORAD_CAT_ID":22236,"ELEMENT_SET_NO":999,"REV_AT_EPOCH":78620,"BSTAR":0.00010262,"MEAN_MOTION_DOT":1.19e-5,"MEAN_MOTION_DDOT":0},{"OBJECT_NAME":"SL-16 R/B","OBJECT_ID":"1992-093B","EPOCH":"2026-04-15T04:55:28.549920","MEAN_MOTION":14.15453527,"ECCENTRICITY":0.00064325,"INCLINATION":71.0199,"RA_OF_ASC_NODE":287.6099,"ARG_OF_PERICENTER":257.0102,"MEAN_ANOMALY":103.0303,"EPHEMERIS_TYPE":0,"CLASSIFICATION_TYPE":"U","NORAD_CAT_ID":22285,"ELEMENT_SET_NO":999,"REV_AT_EPOCH":71832,"BSTAR":-3.6598326e-5,"MEAN_MOTION_DOT":-1.19e-6,"MEAN_MOTION_DDOT":0},{"OBJECT_NAME":"COSMOS 2228","OBJECT_ID":"1992-094A","EPOCH":"2026-04-15T06:37:42.092832","MEAN_MOTION":14.97379446,"ECCENTRICITY":0.00181963,"INCLINATION":82.5205,"RA_OF_ASC_NODE":202.2836,"ARG_OF_PERICENTER":174.4119,"MEAN_ANOMALY":185.7311,"EPHEMERIS_TYPE":0,"CLASSIFICATION_TYPE":"U","NORAD_CAT_ID":22286,"ELEMENT_SET_NO":999,"REV_AT_EPOCH":78153,"BSTAR":9.8304222e-5,"MEAN_MOTION_DOT":1.172e-5,"MEAN_MOTION_DDOT":0},{"OBJECT_NAME":"SL-16 R/B","OBJECT_ID":"1993-016B","EPOCH":"2026-04-15T04:17:12.239232","MEAN_MOTION":14.15314009,"ECCENTRICITY":0.00126912,"INCLINATION":71.0063,"RA_OF_ASC_NODE":138.5474,"ARG_OF_PERICENTER":268.3592,"MEAN_ANOMALY":91.6077,"EPHEMERIS_TYPE":0,"CLASSIFICATION_TYPE":"U","NORAD_CAT_ID":22566,"ELEMENT_SET_NO":999,"REV_AT_EPOCH":70733,"BSTAR":2.3150624e-5,"MEAN_MOTION_DOT":-3.0e-8,"MEAN_MOTION_DDOT":0},{"OBJECT_NAME":"COSMOS 2242","OBJECT_ID":"1993-024A","EPOCH":"2026-04-15T06:35:07.189728","MEAN_MOTION":14.9671297,"ECCENTRICITY":0.00164008,"INCLINATION":82.519,"RA_OF_ASC_NODE":231.7155,"ARG_OF_PERICENTER":177.5292,"MEAN_ANOMALY":182.6015,"EPHEMERIS_TYPE":0,"CLASSIFICATION_TYPE":"U","NORAD_CAT_ID":22626,"ELEMENT_SET_NO":999,"REV_AT_EPOCH":78586,"BSTAR":9.5252664e-5,"MEAN_MOTION_DOT":1.117e-5,"MEAN_MOTION_DDOT":0}]
